{
  "type": "FeatureCollection",
  "features": [
    {
      "type": "Feature",
      "properties": {
        "norad_id": 32364,
        "name": "FENGYUN 1C DEB",
        "group": "fengyun-1c-debris",
        "lat": 23.516673183941005,
        "lon": 177.15952876908466,
        "alt_km": 940.9220822930647,
        "timestamp": "2025-12-07T11:27:50.288840+00:00",
        "meta_object_name": "FENGYUN 1C DEB",
        "meta_object_id": "1999-025CZH",
        "meta_epoch": "2025-11-29T08:05:37.624992",
        "meta_mean_motion": 14.14317962,
        "meta_eccentricity": 0.01349396,
        "meta_inclination": 98.2918,
        "meta_ra_of_asc_node": 173.2369,
        "meta_arg_of_pericenter": 222.8285,
        "meta_mean_anomaly": 136.2316,
        "meta_ephemeris_type": 0,
        "meta_classification_type": "U",
        "meta_norad_cat_id": 32364,
        "meta_element_set_no": 999,
        "meta_rev_at_epoch": 63519,
        "meta_bstar": 0.0022712328,
        "meta_mean_motion_dot": 4.699e-05,
        "meta_mean_motion_ddot": 0,
        "tle_line1": "1 32364U 99025CZH 25333.33724103  .00004699  00000+0  22712-2 0  9995",
        "tle_line2": "2 32364  98.2918 173.2369 0134939 222.8285 136.2316 14.14317962635190"
      },
      "geometry": {
        "type": "Point",
        "coordinates": [
          177.15952876908466,
          23.516673183941005
        ]
      }
    },
    {
      "type": "Feature",
      "properties": {
        "norad_id": 32366,
        "name": "FENGYUN 1C DEB",
        "group": "fengyun-1c-debris",
        "lat": 82.83362421576514,
        "lon": -3.8514408828424376,
        "alt_km": 935.598167328877,
        "timestamp": "2025-12-07T11:27:50.288850+00:00",
        "meta_object_name": "FENGYUN 1C DEB",
        "meta_object_id": "1999-025CZK",
        "meta_epoch": "2025-12-06T14:38:24.855360",
        "meta_mean_motion": 14.13771358,
        "meta_eccentricity": 0.01360226,
        "meta_inclination": 96.7768,
        "meta_ra_of_asc_node": 104.4557,
        "meta_arg_of_pericenter": 285.4089,
        "meta_mean_anomaly": 73.2098,
        "meta_ephemeris_type": 0,
        "meta_classification_type": "U",
        "meta_norad_cat_id": 32366,
        "meta_element_set_no": 999,
        "meta_rev_at_epoch": 93117,
        "meta_bstar": 0.0026694877,
        "meta_mean_motion_dot": 5.49e-05,
        "meta_mean_motion_ddot": 0,
        "tle_line1": "1 32366U 99025CZK 25340.61000990  .00005490  00000+0  26695-2 0  9991",
        "tle_line2": "2 32366  96.7768 104.4557 0136022 285.4089  73.2098 14.13771358931171"
      },
      "geometry": {
        "type": "Point",
        "coordinates": [
          -3.8514408828424376,
          82.83362421576514
        ]
      }
    },
    {
      "type": "Feature",
      "properties": {
        "norad_id": 32372,
        "name": "FENGYUN 1C DEB",
        "group": "fengyun-1c-debris",
        "lat": -63.40840357864564,
        "lon": 29.196996411607262,
        "alt_km": 1471.5419436187376,
        "timestamp": "2025-12-07T11:27:50.288861+00:00",
        "meta_object_name": "FENGYUN 1C DEB",
        "meta_object_id": "1999-025CZR",
        "meta_epoch": "2025-12-06T10:52:59.566080",
        "meta_mean_motion": 13.35338377,
        "meta_eccentricity": 0.0458207,
        "meta_inclination": 97.3125,
        "meta_ra_of_asc_node": 223.3226,
        "meta_arg_of_pericenter": 56.5168,
        "meta_mean_anomaly": 307.8892,
        "meta_ephemeris_type": 0,
        "meta_classification_type": "U",
        "meta_norad_cat_id": 32372,
        "meta_element_set_no": 999,
        "meta_rev_at_epoch": 60056,
        "meta_bstar": 0.003456202,
        "meta_mean_motion_dot": 3.164e-05,
        "meta_mean_motion_ddot": 0,
        "tle_line1": "1 32372U 99025CZR 25340.45346720  .00003164  00000+0  34562-2 0  9992",
        "tle_line2": "2 32372  97.3125 223.3226 0458207  56.5168 307.8892 13.35338377600560"
      },
      "geometry": {
        "type": "Point",
        "coordinates": [
          29.196996411607262,
          -63.40840357864564
        ]
      }
    },
    {
      "type": "Feature",
      "properties": {
        "norad_id": 32409,
        "name": "FENGYUN 1C DEB",
        "group": "fengyun-1c-debris",
        "lat": 41.54600554788354,
        "lon": -27.038884368355916,
        "alt_km": 615.1344954496626,
        "timestamp": "2025-12-07T11:27:50.288871+00:00",
        "meta_object_name": "FENGYUN 1C DEB",
        "meta_object_id": "1999-025CZV",
        "meta_epoch": "2025-12-06T17:01:18.356736",
        "meta_mean_motion": 14.76005795,
        "meta_eccentricity": 0.00390949,
        "meta_inclination": 99.5672,
        "meta_ra_of_asc_node": 143.4571,
        "meta_arg_of_pericenter": 171.8502,
        "meta_mean_anomaly": 205.2264,
        "meta_ephemeris_type": 0,
        "meta_classification_type": "U",
        "meta_norad_cat_id": 32409,
        "meta_element_set_no": 999,
        "meta_rev_at_epoch": 58750,
        "meta_bstar": 0.0032133954,
        "meta_mean_motion_dot": 0.00022407,
        "meta_mean_motion_ddot": 0,
        "tle_line1": "1 32409U 99025CZV 25340.70924024  .00022407  00000+0  32134-2 0  9994",
        "tle_line2": "2 32409  99.5672 143.4571 0039094 171.8502 205.2264 14.76005795587502"
      },
      "geometry": {
        "type": "Point",
        "coordinates": [
          -27.038884368355916,
          41.54600554788354
        ]
      }
    },
    {
      "type": "Feature",
      "properties": {
        "norad_id": 32411,
        "name": "FENGYUN 1C DEB",
        "group": "fengyun-1c-debris",
        "lat": -81.41371827823986,
        "lon": -21.124445737475135,
        "alt_km": 911.2938289090698,
        "timestamp": "2025-12-07T11:27:50.288881+00:00",
        "meta_object_name": "FENGYUN 1C DEB",
        "meta_object_id": "1999-025CZX",
        "meta_epoch": "2025-12-04T00:25:02.853696",
        "meta_mean_motion": 14.09783201,
        "meta_eccentricity": 0.0124615,
        "meta_inclination": 98.4286,
        "meta_ra_of_asc_node": 256.5257,
        "meta_arg_of_pericenter": 41.2219,
        "meta_mean_anomaly": 319.8282,
        "meta_ephemeris_type": 0,
        "meta_classification_type": "U",
        "meta_norad_cat_id": 32411,
        "meta_element_set_no": 999,
        "meta_rev_at_epoch": 65691,
        "meta_bstar": 0.00077808589,
        "meta_mean_motion_dot": 1.43e-05,
        "meta_mean_motion_ddot": 0,
        "tle_line1": "1 32411U 99025CZX 25338.01739414  .00001430  00000+0  77809-3 0  9997",
        "tle_line2": "2 32411  98.4286 256.5257 0124615  41.2219 319.8282 14.09783201656915"
      },
      "geometry": {
        "type": "Point",
        "coordinates": [
          -21.124445737475135,
          -81.41371827823986
        ]
      }
    },
    {
      "type": "Feature",
      "properties": {
        "norad_id": 32414,
        "name": "FENGYUN 1C DEB",
        "group": "fengyun-1c-debris",
        "lat": -28.97530402341587,
        "lon": -132.8082343343994,
        "alt_km": 868.0274674603706,
        "timestamp": "2025-12-07T11:27:50.288891+00:00",
        "meta_object_name": "FENGYUN 1C DEB",
        "meta_object_id": "1999-025DAA",
        "meta_epoch": "2025-12-06T10:46:40.718496",
        "meta_mean_motion": 14.18361009,
        "meta_eccentricity": 0.00451012,
        "meta_inclination": 98.8585,
        "meta_ra_of_asc_node": 51.1193,
        "meta_arg_of_pericenter": 16.8201,
        "meta_mean_anomaly": 343.4457,
        "meta_ephemeris_type": 0,
        "meta_classification_type": "U",
        "meta_norad_cat_id": 32414,
        "meta_element_set_no": 999,
        "meta_rev_at_epoch": 93643,
        "meta_bstar": 0.0023439519,
        "meta_mean_motion_dot": 4.84e-05,
        "meta_mean_motion_ddot": 0,
        "tle_line1": "1 32414U 99025DAA 25340.44908239  .00004840  00000+0  23440-2 0  9992",
        "tle_line2": "2 32414  98.8585  51.1193 0045101  16.8201 343.4457 14.18361009936436"
      },
      "geometry": {
        "type": "Point",
        "coordinates": [
          -132.8082343343994,
          -28.97530402341587
        ]
      }
    },
    {
      "type": "Feature",
      "properties": {
        "norad_id": 32419,
        "name": "FENGYUN 1C DEB",
        "group": "fengyun-1c-debris",
        "lat": 8.751127385642372,
        "lon": 98.58665228201897,
        "alt_km": 981.4685422915327,
        "timestamp": "2025-12-07T11:27:50.288902+00:00",
        "meta_object_name": "FENGYUN 1C DEB",
        "meta_object_id": "1999-025DAF",
        "meta_epoch": "2025-12-01T13:18:33.510528",
        "meta_mean_motion": 14.09844164,
        "meta_eccentricity": 0.02843724,
        "meta_inclination": 97.9442,
        "meta_ra_of_asc_node": 272.1151,
        "meta_arg_of_pericenter": 61.2588,
        "meta_mean_anomaly": 301.6841,
        "meta_ephemeris_type": 0,
        "meta_classification_type": "U",
        "meta_norad_cat_id": 32419,
        "meta_element_set_no": 999,
        "meta_rev_at_epoch": 63413,
        "meta_bstar": 0.00077117327,
        "meta_mean_motion_dot": 1.939e-05,
        "meta_mean_motion_ddot": 0,
        "tle_line1": "1 32419U 99025DAF 25335.55455452  .00001939  00000+0  77117-3 0  9994",
        "tle_line2": "2 32419  97.9442 272.1151 0284372  61.2588 301.6841 14.09844164634132"
      },
      "geometry": {
        "type": "Point",
        "coordinates": [
          98.58665228201897,
          8.751127385642372
        ]
      }
    }
  ]
}